OBJECT_NAME,OBJECT_ID,EPOCH,MEAN_MOTION,ECCENTRICITY,INCLINATION,RA_OF_ASC_NODE,ARG_OF_PERICENTER,MEAN_ANOMALY,EPHEMERIS_TYPE,CLASSIFICATION_TYPE,NORAD_CAT_ID,ELEMENT_SET_NO,REV_AT_EPOCH,BSTAR,MEAN_MOTION_DOT,MEAN_MOTION_DDOT
COSMOS 2507 (RODNIK-S 13),2015-050A,2026-07-04T07:07:44.539392,12.42927235,.00094091,82.4914,69.0173,319.1129,40.9244,0,U,40920,999,48898,.1065993E-3,.25E-6,0
COSMOS 2508 (RODNIK-S 14),2015-050B,2026-07-04T06:03:12.404160,12.42915183,.00144424,82.4867,67.5437,351.0225,9.0594,0,U,40921,999,48896,.98008805E-3,.146E-5,0
COSMOS 2509 (RODNIK-S 15),2015-050C,2026-07-04T06:33:05.986080,12.42884370,.00151197,82.4875,67.6349,7.7329,352.3981,0,U,40922,999,48900,.43938463E-3,.71E-6,0
LINGQIAO VIDEO A,2015-057B,2026-07-04T07:02:39.937920,14.77417411,.00157155,97.6624,179.2524,209.5228,150.5098,0,U,40959,999,57793,.18963943E-3,.1304E-4,0
LINGQIAO VIDEO B,2015-057C,2026-07-04T06:27:18.455040,14.77520415,.00158712,97.6589,180.3879,209.8043,150.2266,0,U,40960,999,57797,.87887917E-4,.58E-5,0
JILIN-1,2015-057D,2026-07-04T06:35:47.064192,14.78188684,.00162134,97.6512,183.7934,202.8255,157.2238,0,U,40961,999,57813,.14406529E-3,.997E-5,0
FOX-1A (AO-85),2015-058D,2026-07-04T02:54:00.566496,14.91042511,.0131532,64.7734,226.3568,50.0240,311.2334,0,U,40967,999,11609,.26142953E-3,.2883E-4,0
SINOD-D 1,2015-058E,2026-07-04T01:24:16.926336,14.96010269,.01202037,64.7731,206.0740,46.4359,314.6659,0,U,40968,999,11918,.37119785E-3,.4654E-4,0
ELEKTRO-L 2,2015-074A,2026-07-03T22:25:13.336896,1.00273831,.00006313,6.7340,70.3182,256.9138,276.4845,0,U,41105,999,3867,0,-.108E-5,0
DAMPE,2015-078A,2026-07-04T07:04:11.828640,15.30830499,.00127791,97.4555,190.8462,23.2892,336.8925,0,U,41173,999,58716,.49982863E-4,.1414E-4,0
ORBCOMM FM110,2015-081D,2026-07-03T22:49:52.478976,14.58907106,.00029799,47.0023,282.1771,171.7506,188.3429,0,U,41182,999,56007,.20477403E-3,.798E-5,0
ORBCOMM FM112,2015-081F,2026-07-04T01:24:01.840896,14.58923566,.00041285,46.9971,190.4662,283.8368,76.2058,0,U,41184,999,56141,.16130017E-3,.592E-5,0
ORBCOMM FM113,2015-081G,2026-07-04T00:51:10.424448,14.58873264,.00026142,46.9987,190.9587,282.0666,77.9927,0,U,41185,999,56139,.1176764E-3,.385E-5,0
ORBCOMM FM108,2015-081J,2026-07-04T03:13:58.429920,14.58896570,.00031262,47.0046,102.0680,283.0000,77.0537,0,U,41187,999,56255,.19609686E-3,.756E-5,0
ORBCOMM FM117,2015-081K,2026-07-04T04:03:06.807456,14.58884146,.00035691,47.0009,100.5362,287.8149,72.2347,0,U,41188,999,56260,.18967756E-3,.726E-5,0
ORBCOMM FM116,2015-081L,2026-07-04T06:51:52.228224,14.58899402,.00010861,47.0003,189.7719,196.6538,163.4312,0,U,41189,999,56143,.10441776E-3,.323E-5,0
HORYU-4,2016-012D,2026-07-01T19:00:28.190016,16.27112331,.00086595,30.9791,330.1929,346.1826,13.8606,0,U,41340,999,57316,.11150615E-2,.4204222E-1,-.3865025E-5
ZIYUAN 3-02 (ZY 3-02),2016-033A,2026-07-04T06:59:53.978208,15.21348720,.00129921,97.3827,260.7371,224.5483,135.4709,0,U,41556,999,56058,.34475298E-3,.7673E-4,0
CARTOSAT-2C,2016-040A,2026-07-04T02:51:55.825632,15.19193846,.00101241,97.4470,244.8641,78.4182,281.8189,0,U,41599,999,55628,.26710632E-3,.556E-4,0
LAPAN-A3,2016-040E,2026-07-04T06:59:17.266848,15.33220634,.00087732,97.1496,180.8762,323.0423,37.0215,0,U,41603,999,55743,.14709483E-3,.465E-4,0
GAOFEN-3,2016-049A,2026-07-04T06:57:11.370816,14.42218163,.00017009,98.4009,192.8176,92.9835,267.1549,0,U,41727,999,52111,.71026288E-4,.191E-5,0
CAS-2T & KS-1Q,2016-066G,2026-07-04T03:21:09.997920,14.44749429,.03427555,98.3816,260.6820,78.2177,285.7245,0,U,41847,999,50724,.24051281E-3,.1671E-4,0
YUNHAI-1 01,2016-068A,2026-07-04T06:41:56.634144,14.32715674,.00040084,98.5839,196.1251,18.5791,341.5539,0,U,41857,999,50427,.13076497E-3,.312E-5,0
RESOURCESAT-2A,2016-074A,2026-07-04T05:51:29.002752,14.21606948,.00029518,98.7524,258.6090,51.0121,309.1319,0,U,41877,999,49672,.14266176E-3,.269E-5,0
